{
  "version": 0.6,
  "generator": "Overpass API 0.7.55.7 8b86ff77",
  "osm3s": {
    "timestamp_osm_base": "2019-05-25T01:02:02Z",
    "timestamp_areas_base": "2019-05-25T00:26:02Z",
    "copyright": "The data included in this document is from www.openstreetmap.org. The data is made available under ODbL."
  },
  "elements": [
    {
      "type": "node",
      "id": 1148183217,
      "lat": 39.3264865,
      "lon": -76.615691,
      "tags": {
        "addr:city": "Baltimore",
        "addr:country": "US",
        "addr:housenumber": "3117",
        "addr:postcode": "21218",
        "addr:state": "MD",
        "addr:street": "Saint Paul Street",
        "contact:website": "http://eddiesmarket.com/",
        "name": "Eddie's Market",
        "opening_hours": "Mo-Sa 07:00-21:00; Su 07:00-18:00",
        "shop": "supermarket"
      }
    },
    {
      "type": "node",
      "id": 1764385383,
      "lat": 39.3559447,
      "lon": -76.6343268,
      "tags": {
        "addr:city": "Baltimore",
        "addr:housenumber": "5113",
        "addr:postcode": "21210",
        "addr:state": "MD",
        "addr:street": "Roland Avenue",
        "name": "Eddie’s of Roland Park",
        "opening_hours": "Mo-Sa 08:00-19:00;Su 08:00-18:00",
        "phone": "+1 410 323 3656",
        "shop": "supermarket",
        "source": "http://www.eddiesofrolandpark.com/"
      }
    },
    {
      "type": "node",
      "id": 2414964049,
      "lat": 39.2840845,
      "lon": -76.6001281,
      "tags": {
        "addr:city": "Baltimore",
        "addr:country": "US",
        "addr:housenumber": "1001",
        "addr:postcode": "21202",
        "addr:state": "MD",
        "addr:street": "Fleet Street",
        "brand": "Whole Foods Market",
        "brand:wikidata": "Q1809448",
        "brand:wikipedia": "en:Whole Foods Market",
        "fax": "+14105281662",
        "name": "Whole Foods Market",
        "opening_hours": "Mo-Fr 07:00-22:00; Sa,Su 08:00-22:00",
        "payment:american_express": "yes",
        "payment:cash": "yes",
        "payment:coins": "yes",
        "payment:mastercard": "yes",
        "payment:notes": "yes",
        "payment:visa": "yes",
        "phone": "+14105281640",
        "shop": "supermarket",
        "wheelchair": "yes"
      }
    },
    {
      "type": "node",
      "id": 2447724469,
      "lat": 39.284449,
      "lon": -76.6353965,
      "tags": {
        "name": "Price Rite",
        "shop": "supermarket"
      }
    },
    {
      "type": "node",
      "id": 2493965971,
      "lat": 39.307274,
      "lon": -76.62854,
      "tags": {
        "name": "Sav-a-lot",
        "shop": "supermarket"
      }
    },
    {
      "type": "node",
      "id": 2494038025,
      "lat": 39.300878,
      "lon": -76.616749,
      "tags": {
        "name": "Eddie's of Roland Park",
        "shop": "supermarket"
      }
    },
    {
      "type": "node",
      "id": 2744547861,
      "lat": 39.285656,
      "lon": -76.588873,
      "tags": {
        "shop": "supermarket"
      }
    },
    {
      "type": "node",
      "id": 2959978836,
      "lat": 39.287901,
      "lon": -76.590313,
      "tags": {
        "addr:city": "Baltimore",
        "addr:country": "US",
        "addr:housenumber": "1840",
        "addr:postcode": "21231",
        "addr:state": "MD",
        "addr:street": "Gough Street",
        "name": "Penny Saver Grocery",
        "shop": "supermarket"
      }
    },
    {
      "type": "node",
      "id": 3432417878,
      "lat": 39.3236172,
      "lon": -76.610837,
      "tags": {
        "addr:city": "Baltimore",
        "addr:country": "US",
        "addr:housenumber": "400",
        "addr:postcode": "21218",
        "addr:state": "MD",
        "addr:street": "East 29th Street",
        "name": "Salvation Army BMG Foods",
        "shop": "supermarket"
      }
    },
    {
      "type": "node",
      "id": 3534493220,
      "lat": 39.3671958,
      "lon": -76.5828653,
      "tags": {
        "addr:city": "Baltimore",
        "addr:country": "US",
        "addr:housenumber": "1700",
        "addr:postcode": "21239",
        "addr:state": "MD",
        "addr:street": "East Northern Parkway",
        "name": "Mars Supermarket",
        "shop": "supermarket",
        "source": "Bing",
        "website": "www.marsfood.com"
      }
    },
    {
      "type": "node",
      "id": 3751880184,
      "lat": 39.2787578,
      "lon": -76.564473,
      "tags": {
        "name": "Cerillo",
        "shop": "supermarket"
      }
    },
    {
      "type": "node",
      "id": 4567907233,
      "lat": 39.2922087,
      "lon": -76.6156817,
      "tags": {
        "name": "Streets Market & Cafe",
        "shop": "supermarket"
      }
    },
    {
      "type": "node",
      "id": 5000428783,
      "lat": 39.2887975,
      "lon": -76.5665076,
      "tags": {
        "addr:city": "Baltimore",
        "addr:country": "US",
        "addr:housenumber": "3700",
        "addr:postcode": "21224",
        "addr:state": "MD",
        "addr:street": "Gough Street",
        "amenity": "restaurant",
        "cuisine": "italian",
        "name": "DiPasquale’s Italian Marketplace",
        "opening_hours": "Mo-Sa 09:00-18:00",
        "operator": "DiPasquale’s Italian Marketplace",
        "phone": "+14102766787",
        "shop": "supermarket",
        "takeaway": "yes",
        "website": "https://www.dipasquales.com/",
        "wheelchair": "yes"
      }
    },
    {
      "type": "node",
      "id": 5553735127,
      "lat": 39.3575772,
      "lon": -76.7069011,
      "tags": {
        "addr:housenumber": "6620",
        "addr:postcode": "21215",
        "addr:street": "Reisterstown Road",
        "name": "Giant Food",
        "shop": "supermarket"
      }
    },
    {
      "type": "way",
      "id": 65239204,
      "nodes": [
        797702013,
        797701978,
        797702015,
        797702004,
        797701966,
        797701960,
        797701963,
        797701959,
        797701982,
        797702016,
        797701972,
        797701957,
        797701988,
        797701976,
        797702013
      ],
      "tags": {
        "building": "yes",
        "name": "Shoppers Food Warehouse",
        "shop": "supermarket"
      }
    },
    {
      "type": "way",
      "id": 118538593,
      "nodes": [
        1333011644,
        1333011620,
        1333011674,
        1333011578,
        1333011638,
        1333011640,
        1333011611,
        1333011685,
        1333011612,
        1333011681,
        1333011607,
        1333011660,
        1333011680,
        1333011649,
        1333011577,
        1333011575,
        1333011644
      ],
      "tags": {
        "addr:city": "Baltimore",
        "addr:country": "US",
        "addr:housenumber": "1020",
        "addr:postcode": "21211",
        "addr:state": "MD",
        "addr:street": "West 41st Street",
        "building": "yes",
        "name": "Giant Food",
        "phone": "+1 410 554 3730",
        "shop": "supermarket",
        "website": "https://giantfood.com/"
      }
    },
    {
      "type": "way",
      "id": 134683383,
      "nodes": [
        1480421632,
        1480421631,
        1480421633,
        1480421630,
        1480421649,
        4310149593,
        1480421635,
        1480421632
      ],
      "tags": {
        "addr:city": "Baltimore",
        "addr:housenumber": "601",
        "addr:postcode": "21218",
        "addr:state": "MD",
        "addr:street": "East 33rd Street",
        "building": "retail",
        "name": "Giant Grocery Store",
        "opening_hours": "Mo-Sa 06:00-00:00; Su 06:00-22:00",
        "operator": "Giant",
        "shop": "supermarket"
      }
    },
    {
      "type": "way",
      "id": 170399584,
      "nodes": [
        1815417811,
        1815417815,
        1815417831,
        1815417817,
        1815417816,
        1815417807,
        1815417821,
        1815417838,
        1815417795,
        1815417837,
        1815417825,
        1815417839,
        1815417808,
        1815417843,
        1815417836,
        1815417823,
        1815417814,
        1815417798,
        1815417812,
        1815417828,
        1815417830,
        1815417835,
        1815417811
      ],
      "tags": {
        "addr:city": "Baltimore",
        "addr:housenumber": "1801",
        "addr:postcode": "21230",
        "addr:state": "Maryland",
        "addr:street": "Whetstone Way",
        "brand": "Harris Teeter",
        "brand:wikidata": "Q5665067",
        "brand:wikipedia": "en:Harris Teeter",
        "building": "retail",
        "name": "Harris Teeter",
        "shop": "supermarket"
      }
    },
    {
      "type": "way",
      "id": 171582462,
      "nodes": [
        1825896171,
        1825896162,
        1825896166,
        1825896167,
        2575146261,
        2575146259,
        2575146287,
        2575146288,
        1825896171
      ],
      "tags": {
        "addr:city": "Baltimore",
        "addr:country": "US",
        "addr:housenumber": "4624",
        "addr:postcode": "21229",
        "addr:state": "MD",
        "addr:street": "Edmondson Avenue",
        "building": "yes",
        "name": "Giant Food",
        "shop": "supermarket"
      }
    },
    {
      "type": "way",
      "id": 177620353,
      "nodes": [
        1880395038,
        1880394677,
        1880394683,
        1880394624,
        1880394241,
        1880394244,
        1880394262,
        1880394265,
        1880394234,
        1880393584,
        1880393592,
        1880393583,
        1880393436,
        1880393435,
        1880393432,
        1880393219,
        1880393209,
        1880393185,
        1880393184,
        1880393210,
        1880393306,
        1880393309,
        1880393310,
        1880393322,
        1880394443,
        1880394662,
        1880395050,
        1880395168,
        1880395038
      ],
      "tags": {
        "building": "yes",
        "height": "10.5",
        "name": "Safeway",
        "opening_hours": "24/7",
        "shop": "supermarket"
      }
    },
    {
      "type": "way",
      "id": 180073126,
      "nodes": [
        1905078866,
        2127892625,
        1905078871,
        1905078879,
        1905078897,
        1905078866
      ],
      "tags": {
        "building": "yes",
        "name": "Food King",
        "shop": "supermarket",
        "source": "survey"
      }
    },
    {
      "type": "way",
      "id": 191346993,
      "nodes": [
        2019310288,
        2019310324,
        2019310323,
        2019310345,
        2019310349,
        2019310288
      ],
      "tags": {
        "building": "retail",
        "name": "Save A Lot",
        "shop": "supermarket"
      }
    },
    {
      "type": "way",
      "id": 230982025,
      "nodes": [
        2394044125,
        2394044124,
        2394044126,
        2423741023,
        2423741030,
        2394044127,
        3312836227,
        3312836230,
        2394044130,
        3312836235,
        3312836243,
        3312836241,
        3312836240,
        2423741040,
        2423741043,
        2423741041,
        2423741046,
        2423741045,
        2423741044,
        2423741042,
        2423741039,
        2394044125
      ],
      "tags": {
        "addr:city": "Baltimore",
        "addr:country": "US",
        "addr:housenumber": "3799",
        "addr:postcode": "21224",
        "addr:street": "Boston Street",
        "brand": "Harris Teeter",
        "brand:wikidata": "Q5665067",
        "brand:wikipedia": "en:Harris Teeter",
        "building": "retail",
        "name": "Harris Teeter",
        "shop": "supermarket"
      }
    },
    {
      "type": "way",
      "id": 240449342,
      "nodes": [
        2481851489,
        2481854494,
        2481851490,
        2481851491,
        2481851492,
        2481851493,
        2481851494,
        2481851495,
        2481851489
      ],
      "tags": {
        "addr:city": "Baltimore",
        "addr:country": "US",
        "addr:housenumber": "3140",
        "addr:postcode": "21230",
        "addr:state": "MD",
        "addr:street": "Washington Boulevard",
        "building": "retail",
        "name": "Aldi",
        "shop": "supermarket",
        "website": "https://www.aldi.us/"
      }
    },
    {
      "type": "way",
      "id": 240520607,
      "nodes": [
        2482488280,
        2482488281,
        2482488282,
        2482488283,
        2482488280
      ],
      "tags": {
        "addr:city": "Baltimore",
        "addr:housenumber": "857",
        "addr:postcode": "21230",
        "addr:street": "East Fort Avenue",
        "building": "yes",
        "name": "Shoppers",
        "opening_hours": "Mo-Su 06:00-23:00",
        "operator": "Shoppers Food and Pharmacy",
        "phone": "+1-410-727-1246",
        "shop": "supermarket",
        "website": "https://www.shoppersfood.com"
      }
    },
    {
      "type": "way",
      "id": 241399842,
      "nodes": [
        3132391476,
        3132391475,
        3132391473,
        3132391478,
        3132391474,
        3132391477,
        3132391479,
        3132391480,
        3132391476
      ],
      "tags": {
        "addr:city": "Baltimore",
        "addr:housenumber": "2401",
        "addr:postcode": "21218",
        "addr:street": "North Charles Street",
        "building": "yes",
        "name": "Safeway",
        "shop": "supermarket",
        "website": "https://www.safeway.com/"
      }
    },
    {
      "type": "way",
      "id": 241571290,
      "nodes": [
        2491810022,
        2491810023,
        2491810024,
        2491810038,
        2491810027,
        2491810025,
        2491810026,
        2491810021,
        2491810020,
        2491810022
      ],
      "tags": {
        "building": "retail",
        "name": "Food Depot",
        "shop": "supermarket"
      }
    },
    {
      "type": "way",
      "id": 315788814,
      "nodes": [
        3219229835,
        3219229854,
        3219229855,
        3219229836,
        3219229850,
        3219229840,
        3219229835
      ],
      "tags": {
        "addr:city": "Baltimore",
        "addr:country": "US",
        "addr:housenumber": "1330",
        "addr:postcode": "21209",
        "addr:state": "MD",
        "addr:street": "Smith Avenue",
        "brand": "Whole Foods Market",
        "brand:wikidata": "Q1809448",
        "brand:wikipedia": "en:Whole Foods Market",
        "building": "yes",
        "name": "Whole Foods Market",
        "shop": "supermarket",
        "source": "Mapbox",
        "website": "https://www.wholefoodsmarket.com/"
      }
    },
    {
      "type": "way",
      "id": 336177361,
      "nodes": [
        3432542722,
        3432542715,
        3432542723,
        3432542721,
        3432542699,
        3432542698,
        3432542701,
        3432542700,
        3432542697,
        3432542694,
        3432542693,
        3432542695,
        3432542722
      ],
      "tags": {
        "addr:city": "Baltimore",
        "addr:country": "US",
        "addr:housenumber": "5150",
        "addr:postcode": "21206",
        "addr:state": "MD",
        "addr:street": "Sinclair Lane",
        "building": "yes",
        "name": "Giant",
        "shop": "supermarket"
      }
    },
    {
      "type": "way",
      "id": 336232072,
      "nodes": [
        3432938851,
        3432938927,
        3432938928,
        3432938860,
        3432938848,
        3432938903,
        3432938868,
        3432938869,
        3432938861,
        3432938862,
        3432938863,
        3432938896,
        3432938850,
        3432938851
      ],
      "tags": {
        "addr:city": "Baltimore",
        "addr:country": "US",
        "addr:housenumber": "4001",
        "addr:postcode": "21213",
        "addr:state": "MD",
        "addr:street": "Erdman Avenue",
        "building": "yes",
        "name": "Save-A-Lot",
        "shop": "supermarket"
      }
    },
    {
      "type": "way",
      "id": 336263217,
      "nodes": [
        3433258120,
        3433258106,
        3433258105,
        3433258108,
        3433258107,
        3433258109,
        3433258113,
        3433258114,
        3433258120
      ],
      "tags": {
        "addr:city": "Baltimore",
        "addr:country": "US",
        "addr:housenumber": "2509",
        "addr:postcode": "21205",
        "addr:state": "MD",
        "addr:street": "East Monument Street",
        "building": "yes",
        "name": "Save-A-Lot",
        "shop": "supermarket"
      }
    },
    {
      "type": "way",
      "id": 336397110,
      "nodes": [
        3434366553,
        3434366552,
        3434366515,
        3434366514,
        3434366517,
        3434366516,
        3434366513,
        3434366560,
        3434366561,
        3434366536,
        3434366562,
        3434366535,
        3434366546,
        3434366545,
        3434366544,
        3434366543,
        3434366542,
        3434366530,
        3434366529,
        3434366532,
        3434366531,
        3434366558,
        3434366518,
        3434366519,
        3434366520,
        3434366521,
        3434366522,
        3434366568,
        3434366569,
        3434366523,
        3434366567,
        3434366570,
        3434366549,
        3434366548,
        3434366551,
        3434366550,
        3434366547,
        3434366559,
        3434366524,
        3434366564,
        3434366563,
        3434366533,
        3434366534,
        3434366528,
        3434366526,
        3434366527,
        3434366525,
        3434366554,
        3434366555,
        3434366566,
        3434366556,
        3434366557,
        3434366540,
        3434366539,
        3434366538,
        3434366537,
        3434366541,
        3493059459,
        3434366565,
        3434366553
      ],
      "tags": {
        "addr:city": "Baltimore",
        "addr:country": "US",
        "addr:housenumber": "1101",
        "addr:postcode": "21201",
        "addr:state": "MD",
        "addr:street": "Pennsylvania Avenue",
        "building": "yes",
        "name": "Save A Lot",
        "shop": "supermarket"
      }
    },
    {
      "type": "way",
      "id": 337274532,
      "nodes": [
        3443854817,
        3443854822,
        3443854823,
        3443854824,
        3443854819,
        3443854818,
        3443854806,
        3443854805,
        3443854808,
        3443854807,
        3443854812,
        3443854817
      ],
      "tags": {
        "addr:city": "Baltimore",
        "addr:country": "US",
        "addr:housenumber": "2000",
        "addr:postcode": "21218",
        "addr:state": "MD",
        "addr:street": "Maryland Avenue",
        "building": "yes",
        "name": "Sav a Lot",
        "shop": "supermarket"
      }
    },
    {
      "type": "way",
      "id": 337888189,
      "nodes": [
        3449536821,
        3449536820,
        3449536830,
        3449536831,
        3449536832,
        3449536833,
        3449536829,
        3449536828,
        3449536826,
        3449536825,
        3449536822,
        3449536821
      ],
      "tags": {
        "addr:city": "Baltimore",
        "addr:country": "US",
        "addr:housenumber": "3250",
        "addr:postcode": "21224",
        "addr:state": "MD",
        "addr:street": "East Fayette Street",
        "building": "retail",
        "name": "Aldi",
        "shop": "supermarket"
      }
    },
    {
      "type": "way",
      "id": 339441803,
      "nodes": [
        3466385739,
        3466385737,
        3466385738,
        3466385736,
        3466385724,
        3466385735,
        3466385697,
        3466385696,
        3466385695,
        3466385694,
        3466385693,
        3466381492,
        3466381491,
        3466381490,
        3466381488,
        3466381486,
        3466381485,
        3466381483,
        3466381481,
        3466381479,
        3466381477,
        3466381476,
        3466381473,
        3466381471,
        3466381470,
        3466381468,
        3466381466,
        3466381467,
        3466381469,
        3466381472,
        3466381474,
        3466381475,
        3466381478,
        3466381480,
        3466381482,
        3466381484,
        3466381487,
        3466381489,
        3466385699,
        3466385698,
        3466385700,
        3466385701,
        3466385702,
        3466385703,
        3466385704,
        3466385705,
        3466385706,
        3466385707,
        3466385708,
        3466385709,
        3466385710,
        3466385711,
        3466385712,
        3466385713,
        3466385714,
        3466385715,
        3466385716,
        3466385717,
        3466385718,
        3466385719,
        3466385720,
        3466385721,
        3466385722,
        3466385723,
        3466385725,
        3466385726,
        3466385727,
        3466385728,
        3466385729,
        3466385730,
        3466385731,
        3466385732,
        3466385733,
        3466385734,
        3466385739
      ],
      "tags": {
        "building": "retail",
        "name": "Safeway",
        "shop": "supermarket"
      }
    },
    {
      "type": "way",
      "id": 347001002,
      "nodes": [
        3534485774,
        3534485769,
        3534485770,
        3534485771,
        3534485772,
        3534485773,
        3534485776,
        3534485775,
        3534485778,
        3534485777,
        3534485779,
        3534485774
      ],
      "tags": {
        "building": "yes",
        "name": "Shoppers Food Warehouse",
        "shop": "supermarket"
      }
    },
    {
      "type": "way",
      "id": 358572569,
      "nodes": [
        3634785593,
        3634782987,
        3634782984,
        3634782983,
        3634782982,
        3634782985,
        3634785593
      ],
      "tags": {
        "building": "yes",
        "name": "Shoprite",
        "shop": "supermarket"
      }
    },
    {
      "type": "way",
      "id": 531133208,
      "nodes": [
        1972462094,
        1972462092,
        1972462081,
        1972462085,
        1972462094
      ],
      "tags": {
        "building": "yes",
        "name": "MOM's Organic Market",
        "organic": "only",
        "shop": "supermarket"
      }
    },
    {
      "type": "node",
      "id": 2481851489,
      "lat": 39.2590197,
      "lon": -76.6623787
    },
    {
      "type": "node",
      "id": 2481851490,
      "lat": 39.2593125,
      "lon": -76.6619254
    },
    {
      "type": "node",
      "id": 2481851494,
      "lat": 39.2592544,
      "lon": -76.6625852
    },
    {
      "type": "node",
      "id": 2481851495,
      "lat": 39.2591256,
      "lon": -76.6625047
    },
    {
      "type": "node",
      "id": 2481854494,
      "lat": 39.2592761,
      "lon": -76.6619832
    },
    {
      "type": "node",
      "id": 2481851491,
      "lat": 39.2596199,
      "lon": -76.6622633
    },
    {
      "type": "node",
      "id": 2481851492,
      "lat": 39.2595617,
      "lon": -76.6623492
    },
    {
      "type": "node",
      "id": 2481851493,
      "lat": 39.2594745,
      "lon": -76.6622472
    },
    {
      "type": "node",
      "id": 2491810020,
      "lat": 39.2833211,
      "lon": -76.6532765
    },
    {
      "type": "node",
      "id": 2491810021,
      "lat": 39.2833087,
      "lon": -76.65366
    },
    {
      "type": "node",
      "id": 2491810022,
      "lat": 39.2834084,
      "lon": -76.6532816
    },
    {
      "type": "node",
      "id": 2491810023,
      "lat": 39.2834172,
      "lon": -76.6530981
    },
    {
      "type": "node",
      "id": 2491810024,
      "lat": 39.2827126,
      "lon": -76.653048
    },
    {
      "type": "node",
      "id": 2491810025,
      "lat": 39.28269,
      "lon": -76.6536788
    },
    {
      "type": "node",
      "id": 2491810026,
      "lat": 39.2833066,
      "lon": -76.6537271
    },
    {
      "type": "node",
      "id": 2491810027,
      "lat": 39.2826943,
      "lon": -76.6535603
    },
    {
      "type": "node",
      "id": 2491810038,
      "lat": 39.2827053,
      "lon": -76.6532523
    },
    {
      "type": "node",
      "id": 1825896162,
      "lat": 39.2942182,
      "lon": -76.6956308
    },
    {
      "type": "node",
      "id": 1825896166,
      "lat": 39.2935528,
      "lon": -76.69559
    },
    {
      "type": "node",
      "id": 1825896167,
      "lat": 39.2935304,
      "lon": -76.6961999
    },
    {
      "type": "node",
      "id": 1825896171,
      "lat": 39.2941959,
      "lon": -76.6962384
    },
    {
      "type": "node",
      "id": 2575146259,
      "lat": 39.2938084,
      "lon": -76.6964482
    },
    {
      "type": "node",
      "id": 2575146261,
      "lat": 39.2938169,
      "lon": -76.6962174
    },
    {
      "type": "node",
      "id": 2575146287,
      "lat": 39.2939776,
      "lon": -76.6964586
    },
    {
      "type": "node",
      "id": 2575146288,
      "lat": 39.2939861,
      "lon": -76.6962255
    },
    {
      "type": "node",
      "id": 3634782982,
      "lat": 39.3296968,
      "lon": -76.6951935
    },
    {
      "type": "node",
      "id": 3634782983,
      "lat": 39.3299505,
      "lon": -76.6950605
    },
    {
      "type": "node",
      "id": 3634782984,
      "lat": 39.3299802,
      "lon": -76.6951551
    },
    {
      "type": "node",
      "id": 3634782985,
      "lat": 39.3300675,
      "lon": -76.6963743
    },
    {
      "type": "node",
      "id": 3634782987,
      "lat": 39.3302597,
      "lon": -76.6950085
    },
    {
      "type": "node",
      "id": 3634785593,
      "lat": 39.3306006,
      "lon": -76.6960945
    },
    {
      "type": "node",
      "id": 1815417795,
      "lat": 39.2678855,
      "lon": -76.5995336
    },
    {
      "type": "node",
      "id": 1815417798,
      "lat": 39.2677713,
      "lon": -76.6002068
    },
    {
      "type": "node",
      "id": 1815417807,
      "lat": 39.2677007,
      "lon": -76.5993002
    },
    {
      "type": "node",
      "id": 1815417808,
      "lat": 39.2680101,
      "lon": -76.6000861
    },
    {
      "type": "node",
      "id": 1815417811,
      "lat": 39.2674515,
      "lon": -76.6002685
    },
    {
      "type": "node",
      "id": 1815417812,
      "lat": 39.2675657,
      "lon": -76.6003248
    },
    {
      "type": "node",
      "id": 1815417814,
      "lat": 39.26779,
      "lon": -76.6002658
    },
    {
      "type": "node",
      "id": 1815417815,
      "lat": 39.2674245,
      "lon": -76.600188
    },
    {
      "type": "node",
      "id": 1815417816,
      "lat": 39.2673809,
      "lon": -76.5994826
    },
    {
      "type": "node",
      "id": 1815417817,
      "lat": 39.2673165,
      "lon": -76.5996087
    },
    {
      "type": "node",
      "id": 1815417821,
      "lat": 39.2677517,
      "lon": -76.599317
    },
    {
      "type": "node",
      "id": 1815417823,
      "lat": 39.2678398,
      "lon": -76.60029
    },
    {
      "type": "node",
      "id": 1815417825,
      "lat": 39.2679395,
      "lon": -76.5997991
    },
    {
      "type": "node",
      "id": 1815417828,
      "lat": 39.2675533,
      "lon": -76.60029
    },
    {
      "type": "node",
      "id": 1815417830,
      "lat": 39.2675346,
      "lon": -76.6003087
    },
    {
      "type": "node",
      "id": 1815417831,
      "lat": 39.2674942,
      "lon": -76.6001404
    },
    {
      "type": "node",
      "id": 1815417835,
      "lat": 39.2675138,
      "lon": -76.6002417
    },
    {
      "type": "node",
      "id": 1815417836,
      "lat": 39.2680039,
      "lon": -76.6001934
    },
    {
      "type": "node",
      "id": 1815417837,
      "lat": 39.2679748,
      "lon": -76.5997777
    },
    {
      "type": "node",
      "id": 1815417838,
      "lat": 39.2678398,
      "lon": -76.5995497
    },
    {
      "type": "node",
      "id": 1815417839,
      "lat": 39.2680383,
      "lon": -76.6000653
    },
    {
      "type": "node",
      "id": 1815417843,
      "lat": 39.2680226,
      "lon": -76.600129
    },
    {
      "type": "node",
      "id": 2482488280,
      "lat": 39.2708023,
      "lon": -76.6041703
    },
    {
      "type": "node",
      "id": 2482488281,
      "lat": 39.2708293,
      "lon": -76.603548
    },
    {
      "type": "node",
      "id": 2482488282,
      "lat": 39.2701435,
      "lon": -76.6035137
    },
    {
      "type": "node",
      "id": 2482488283,
      "lat": 39.2701088,
      "lon": -76.6041274
    },
    {
      "type": "node",
      "id": 1880393184,
      "lat": 39.2801151,
      "lon": -76.5790844
    },
    {
      "type": "node",
      "id": 1880393185,
      "lat": 39.2801152,
      "lon": -76.5790811
    },
    {
      "type": "node",
      "id": 1880393210,
      "lat": 39.2801411,
      "lon": -76.579086
    },
    {
      "type": "node",
      "id": 1880393306,
      "lat": 39.2802485,
      "lon": -76.5790927
    },
    {
      "type": "node",
      "id": 1880393309,
      "lat": 39.2802552,
      "lon": -76.5791023
    },
    {
      "type": "node",
      "id": 1880393310,
      "lat": 39.2802628,
      "lon": -76.5791135
    },
    {
      "type": "node",
      "id": 1880393322,
      "lat": 39.2802894,
      "lon": -76.5791521
    },
    {
      "type": "node",
      "id": 1880394443,
      "lat": 39.280824,
      "lon": -76.5791873
    },
    {
      "type": "node",
      "id": 1880394662,
      "lat": 39.2808706,
      "lon": -76.5791335
    },
    {
      "type": "node",
      "id": 1880395050,
      "lat": 39.2809658,
      "lon": -76.5791386
    },
    {
      "type": "node",
      "id": 1880393209,
      "lat": 39.2801394,
      "lon": -76.5784388
    },
    {
      "type": "node",
      "id": 1880393219,
      "lat": 39.2801734,
      "lon": -76.57844
    },
    {
      "type": "node",
      "id": 1880393432,
      "lat": 39.2804323,
      "lon": -76.5784495
    },
    {
      "type": "node",
      "id": 1880393435,
      "lat": 39.2804329,
      "lon": -76.5783937
    },
    {
      "type": "node",
      "id": 1880393436,
      "lat": 39.280433,
      "lon": -76.5783854
    },
    {
      "type": "node",
      "id": 1880393583,
      "lat": 39.2805083,
      "lon": -76.5783922
    },
    {
      "type": "node",
      "id": 1880393584,
      "lat": 39.2805084,
      "lon": -76.5784535
    },
    {
      "type": "node",
      "id": 1880393592,
      "lat": 39.2805097,
      "lon": -76.5783923
    },
    {
      "type": "node",
      "id": 1880394234,
      "lat": 39.2807764,
      "lon": -76.5784699
    },
    {
      "type": "node",
      "id": 1880394241,
      "lat": 39.2807792,
      "lon": -76.5784095
    },
    {
      "type": "node",
      "id": 1880394244,
      "lat": 39.2807797,
      "lon": -76.5784128
    },
    {
      "type": "node",
      "id": 1880394262,
      "lat": 39.2807849,
      "lon": -76.5784511
    },
    {
      "type": "node",
      "id": 1880394265,
      "lat": 39.2807857,
      "lon": -76.5784698
    },
    {
      "type": "node",
      "id": 1880394624,
      "lat": 39.2808648,
      "lon": -76.5784143
    },
    {
      "type": "node",
      "id": 1880394677,
      "lat": 39.2808754,
      "lon": -76.57848
    },
    {
      "type": "node",
      "id": 1880394683,
      "lat": 39.2808772,
      "lon": -76.578415
    },
    {
      "type": "node",
      "id": 1880395038,
      "lat": 39.2809567,
      "lon": -76.5784865
    },
    {
      "type": "node",
      "id": 1880395168,
      "lat": 39.2809914,
      "lon": -76.5784893
    },
    {
      "type": "node",
      "id": 2394044124,
      "lat": 39.2746795,
      "lon": -76.5653139
    },
    {
      "type": "node",
      "id": 2394044125,
      "lat": 39.2750996,
      "lon": -76.565336
    },
    {
      "type": "node",
      "id": 2394044126,
      "lat": 39.274509,
      "lon": -76.565305
    },
    {
      "type": "node",
      "id": 2394044127,
      "lat": 39.2746314,
      "lon": -76.5643831
    },
    {
      "type": "node",
      "id": 2394044130,
      "lat": 39.2750659,
      "lon": -76.5644059
    },
    {
      "type": "node",
      "id": 2423741023,
      "lat": 39.274522,
      "lon": -76.564892
    },
    {
      "type": "node",
      "id": 2423741030,
      "lat": 39.2746153,
      "lon": -76.5648969
    },
    {
      "type": "node",
      "id": 2423741039,
      "lat": 39.2751045,
      "lon": -76.5651809
    },
    {
      "type": "node",
      "id": 2423741040,
      "lat": 39.275119,
      "lon": -76.5648895
    },
    {
      "type": "node",
      "id": 2423741041,
      "lat": 39.2751621,
      "lon": -76.5649526
    },
    {
      "type": "node",
      "id": 2423741042,
      "lat": 39.275162,
      "lon": -76.5651839
    },
    {
      "type": "node",
      "id": 2423741043,
      "lat": 39.275164,
      "lon": -76.5648918
    },
    {
      "type": "node",
      "id": 2423741044,
      "lat": 39.2751635,
      "lon": -76.5651348
    },
    {
      "type": "node",
      "id": 2423741045,
      "lat": 39.2751768,
      "lon": -76.5651355
    },
    {
      "type": "node",
      "id": 2423741046,
      "lat": 39.2751825,
      "lon": -76.5649537
    },
    {
      "type": "node",
      "id": 3312836227,
      "lat": 39.2749109,
      "lon": -76.5643977
    },
    {
      "type": "node",
      "id": 3312836230,
      "lat": 39.2749592,
      "lon": -76.5644003
    },
    {
      "type": "node",
      "id": 3312836235,
      "lat": 39.2750663,
      "lon": -76.5643953
    },
    {
      "type": "node",
      "id": 3312836240,
      "lat": 39.2751311,
      "lon": -76.5645031
    },
    {
      "type": "node",
      "id": 3312836241,
      "lat": 39.2751421,
      "lon": -76.5645037
    },
    {
      "type": "node",
      "id": 3312836243,
      "lat": 39.2751454,
      "lon": -76.5643994
    },
    {
      "type": "node",
      "id": 3434366513,
      "lat": 39.2990429,
      "lon": -76.6288563
    },
    {
      "type": "node",
      "id": 3434366514,
      "lat": 39.2989878,
      "lon": -76.6288318
    },
    {
      "type": "node",
      "id": 3434366515,
      "lat": 39.2987935,
      "lon": -76.6285939
    },
    {
      "type": "node",
      "id": 3434366516,
      "lat": 39.2990405,
      "lon": -76.6288545
    },
    {
      "type": "node",
      "id": 3434366517,
      "lat": 39.2990188,
      "lon": -76.6288317
    },
    {
      "type": "node",
      "id": 3434366518,
      "lat": 39.2991233,
      "lon": -76.6288886
    },
    {
      "type": "node",
      "id": 3434366519,
      "lat": 39.2991348,
      "lon": -76.6288885
    },
    {
      "type": "node",
      "id": 3434366520,
      "lat": 39.2991376,
      "lon": -76.628888
    },
    {
      "type": "node",
      "id": 3434366521,
      "lat": 39.2991405,
      "lon": -76.628888
    },
    {
      "type": "node",
      "id": 3434366522,
      "lat": 39.2991432,
      "lon": -76.6288876
    },
    {
      "type": "node",
      "id": 3434366523,
      "lat": 39.2991573,
      "lon": -76.6288853
    },
    {
      "type": "node",
      "id": 3434366524,
      "lat": 39.2991875,
      "lon": -76.628875
    },
    {
      "type": "node",
      "id": 3434366525,
      "lat": 39.299213,
      "lon": -76.6288589
    },
    {
      "type": "node",
      "id": 3434366526,
      "lat": 39.299208,
      "lon": -76.6288625
    },
    {
      "type": "node",
      "id": 3434366527,
      "lat": 39.2992104,
      "lon": -76.6288607
    },
    {
      "type": "node",
      "id": 3434366528,
      "lat": 39.2992029,
      "lon": -76.6288661
    },
    {
      "type": "node",
      "id": 3434366529,
      "lat": 39.2991009,
      "lon": -76.6288851
    },
    {
      "type": "node",
      "id": 3434366530,
      "lat": 39.2990981,
      "lon": -76.6288847
    },
    {
      "type": "node",
      "id": 3434366531,
      "lat": 39.2991177,
      "lon": -76.6288881
    },
    {
      "type": "node",
      "id": 3434366532,
      "lat": 39.2991036,
      "lon": -76.628886
    },
    {
      "type": "node",
      "id": 3434366533,
      "lat": 39.2991979,
      "lon": -76.6288692
    },
    {
      "type": "node",
      "id": 3434366534,
      "lat": 39.2992005,
      "lon": -76.6288674
    },
    {
      "type": "node",
      "id": 3434366535,
      "lat": 39.2990603,
      "lon": -76.6288686
    },
    {
      "type": "node",
      "id": 3434366536,
      "lat": 39.2990503,
      "lon": -76.628862
    },
    {
      "type": "node",
      "id": 3434366537,
      "lat": 39.2992869,
      "lon": -76.6287358
    },
    {
      "type": "node",
      "id": 3434366538,
      "lat": 39.2992995,
      "lon": -76.6287516
    },
    {
      "type": "node",
      "id": 3434366539,
      "lat": 39.2992359,
      "lon": -76.6288376
    },
    {
      "type": "node",
      "id": 3434366540,
      "lat": 39.299227,
      "lon": -76.6288465
    },
    {
      "type": "node",
      "id": 3434366541,
      "lat": 39.2993387,
      "lon": -76.6286661
    },
    {
      "type": "node",
      "id": 3434366542,
      "lat": 39.2990952,
      "lon": -76.6288838
    },
    {
      "type": "node",
      "id": 3434366543,
      "lat": 39.2990842,
      "lon": -76.6288804
    },
    {
      "type": "node",
      "id": 3434366544,
      "lat": 39.2990816,
      "lon": -76.6288791
    },
    {
      "type": "node",
      "id": 3434366545,
      "lat": 39.2990789,
      "lon": -76.6288782
    },
    {
      "type": "node",
      "id": 3434366546,
      "lat": 39.2990629,
      "lon": -76.6288703
    },
    {
      "type": "node",
      "id": 3434366547,
      "lat": 39.299182,
      "lon": -76.6288772
    },
    {
      "type": "node",
      "id": 3434366548,
      "lat": 39.2991712,
      "lon": -76.6288817
    },
    {
      "type": "node",
      "id": 3434366549,
      "lat": 39.2991657,
      "lon": -76.6288835
    },
    {
      "type": "node",
      "id": 3434366550,
      "lat": 39.2991794,
      "lon": -76.6288785
    },
    {
      "type": "node",
      "id": 3434366551,
      "lat": 39.2991739,
      "lon": -76.6288803
    },
    {
      "type": "node",
      "id": 3434366552,
      "lat": 39.2990813,
      "lon": -76.6282046
    },
    {
      "type": "node",
      "id": 3434366553,
      "lat": 39.2995191,
      "lon": -76.6287407
    },
    {
      "type": "node",
      "id": 3434366554,
      "lat": 39.2992154,
      "lon": -76.6288572
    },
    {
      "type": "node",
      "id": 3434366555,
      "lat": 39.2992178,
      "lon": -76.6288549
    },
    {
      "type": "node",
      "id": 3434366556,
      "lat": 39.2992224,
      "lon": -76.6288509
    },
    {
      "type": "node",
      "id": 3434366557,
      "lat": 39.2992248,
      "lon": -76.6288487
    },
    {
      "type": "node",
      "id": 3434366558,
      "lat": 39.2991206,
      "lon": -76.6288881
    },
    {
      "type": "node",
      "id": 3434366559,
      "lat": 39.2991847,
      "lon": -76.6288759
    },
    {
      "type": "node",
      "id": 3434366560,
      "lat": 39.2990453,
      "lon": -76.6288585
    },
    {
      "type": "node",
      "id": 3434366561,
      "lat": 39.2990477,
      "lon": -76.6288602
    },
    {
      "type": "node",
      "id": 3434366562,
      "lat": 39.2990577,
      "lon": -76.6288672
    },
    {
      "type": "node",
      "id": 3434366563,
      "lat": 39.2991953,
      "lon": -76.6288705
    },
    {
      "type": "node",
      "id": 3434366564,
      "lat": 39.2991926,
      "lon": -76.6288723
    },
    {
      "type": "node",
      "id": 3434366565,
      "lat": 39.2994624,
      "lon": -76.6288174
    },
    {
      "type": "node",
      "id": 3434366566,
      "lat": 39.2992202,
      "lon": -76.6288531
    },
    {
      "type": "node",
      "id": 3434366567,
      "lat": 39.29916,
      "lon": -76.6288848
    },
    {
      "type": "node",
      "id": 3434366568,
      "lat": 39.2991462,
      "lon": -76.6288876
    },
    {
      "type": "node",
      "id": 3434366569,
      "lat": 39.2991546,
      "lon": -76.6288862
    },
    {
      "type": "node",
      "id": 3434366570,
      "lat": 39.299163,
      "lon": -76.6288839
    },
    {
      "type": "node",
      "id": 3493059459,
      "lat": 39.2993608,
      "lon": -76.6286931
    },
    {
      "type": "node",
      "id": 1972462081,
      "lat": 39.3360907,
      "lon": -76.6303842
    },
    {
      "type": "node",
      "id": 1972462085,
      "lat": 39.3364719,
      "lon": -76.6304086
    },
    {
      "type": "node",
      "id": 1972462092,
      "lat": 39.3360737,
      "lon": -76.6308294
    },
    {
      "type": "node",
      "id": 1972462094,
      "lat": 39.3364547,
      "lon": -76.6308585
    },
    {
      "type": "node",
      "id": 3443854805,
      "lat": 39.3122315,
      "lon": -76.6185956
    },
    {
      "type": "node",
      "id": 3443854807,
      "lat": 39.3122576,
      "lon": -76.6186424
    },
    {
      "type": "node",
      "id": 3443854808,
      "lat": 39.3122594,
      "lon": -76.6185974
    },
    {
      "type": "node",
      "id": 3443854812,
      "lat": 39.3125138,
      "lon": -76.6186592
    },
    {
      "type": "node",
      "id": 3443854817,
      "lat": 39.3125566,
      "lon": -76.6186617
    },
    {
      "type": "node",
      "id": 3443854822,
      "lat": 39.3125753,
      "lon": -76.6181871
    },
    {
      "type": "node",
      "id": 3443854823,
      "lat": 39.312609,
      "lon": -76.6181893
    },
    {
      "type": "node",
      "id": 3132391473,
      "lat": 39.3164939,
      "lon": -76.6158141
    },
    {
      "type": "node",
      "id": 3132391474,
      "lat": 39.3165583,
      "lon": -76.6160987
    },
    {
      "type": "node",
      "id": 3132391475,
      "lat": 39.3169725,
      "lon": -76.6158374
    },
    {
      "type": "node",
      "id": 3132391476,
      "lat": 39.3169444,
      "lon": -76.6168
    },
    {
      "type": "node",
      "id": 3132391477,
      "lat": 39.3165448,
      "lon": -76.6165624
    },
    {
      "type": "node",
      "id": 3132391478,
      "lat": 39.3164857,
      "lon": -76.6160951
    },
    {
      "type": "node",
      "id": 3132391479,
      "lat": 39.3164677,
      "lon": -76.6165586
    },
    {
      "type": "node",
      "id": 3132391480,
      "lat": 39.3164614,
      "lon": -76.6167764
    },
    {
      "type": "node",
      "id": 3443854806,
      "lat": 39.3122506,
      "lon": -76.6181134
    },
    {
      "type": "node",
      "id": 3443854818,
      "lat": 39.3125651,
      "lon": -76.6181339
    },
    {
      "type": "node",
      "id": 3443854819,
      "lat": 39.3125654,
      "lon": -76.6181266
    },
    {
      "type": "node",
      "id": 3443854824,
      "lat": 39.3126113,
      "lon": -76.6181297
    },
    {
      "type": "node",
      "id": 1480421630,
      "lat": 39.3282281,
      "lon": -76.6076423
    },
    {
      "type": "node",
      "id": 1480421631,
      "lat": 39.3274538,
      "lon": -76.6082077
    },
    {
      "type": "node",
      "id": 1480421632,
      "lat": 39.327288,
      "lon": -76.6082131
    },
    {
      "type": "node",
      "id": 1480421633,
      "lat": 39.3274572,
      "lon": -76.6076571
    },
    {
      "type": "node",
      "id": 1480421635,
      "lat": 39.3273341,
      "lon": -76.6084783
    },
    {
      "type": "node",
      "id": 1480421649,
      "lat": 39.3282353,
      "lon": -76.6083537
    },
    {
      "type": "node",
      "id": 4310149593,
      "lat": 39.3274995,
      "lon": -76.6084801
    },
    {
      "type": "node",
      "id": 3433258107,
      "lat": 39.2981613,
      "lon": -76.5817198
    },
    {
      "type": "node",
      "id": 3433258108,
      "lat": 39.2981651,
      "lon": -76.5816204
    },
    {
      "type": "node",
      "id": 3433258109,
      "lat": 39.298185,
      "lon": -76.5817213
    },
    {
      "type": "node",
      "id": 3433258113,
      "lat": 39.2981795,
      "lon": -76.5818666
    },
    {
      "type": "node",
      "id": 3433258114,
      "lat": 39.2982455,
      "lon": -76.5818707
    },
    {
      "type": "node",
      "id": 3433258120,
      "lat": 39.2984074,
      "lon": -76.58188
    },
    {
      "type": "node",
      "id": 3433258105,
      "lat": 39.2987759,
      "lon": -76.5816585
    },
    {
      "type": "node",
      "id": 3433258106,
      "lat": 39.2987666,
      "lon": -76.5819041
    },
    {
      "type": "node",
      "id": 3449536820,
      "lat": 39.2949206,
      "lon": -76.5718171
    },
    {
      "type": "node",
      "id": 3449536821,
      "lat": 39.2949434,
      "lon": -76.571648
    },
    {
      "type": "node",
      "id": 3449536822,
      "lat": 39.2949491,
      "lon": -76.5716055
    },
    {
      "type": "node",
      "id": 3449536825,
      "lat": 39.2950136,
      "lon": -76.5716199
    },
    {
      "type": "node",
      "id": 3449536826,
      "lat": 39.2950579,
      "lon": -76.5712913
    },
    {
      "type": "node",
      "id": 3449536828,
      "lat": 39.2952415,
      "lon": -76.5713323
    },
    {
      "type": "node",
      "id": 3449536829,
      "lat": 39.2952459,
      "lon": -76.5713
    },
    {
      "type": "node",
      "id": 3449536830,
      "lat": 39.2952701,
      "lon": -76.5718952
    },
    {
      "type": "node",
      "id": 3449536831,
      "lat": 39.2953254,
      "lon": -76.5714856
    },
    {
      "type": "node",
      "id": 3449536832,
      "lat": 39.2953539,
      "lon": -76.5714919
    },
    {
      "type": "node",
      "id": 3449536833,
      "lat": 39.2953759,
      "lon": -76.5713291
    },
    {
      "type": "node",
      "id": 3432938848,
      "lat": 39.314153,
      "lon": -76.5687672
    },
    {
      "type": "node",
      "id": 3432938850,
      "lat": 39.3140967,
      "lon": -76.5691018
    },
    {
      "type": "node",
      "id": 3432938851,
      "lat": 39.3141279,
      "lon": -76.5691018
    },
    {
      "type": "node",
      "id": 3432938860,
      "lat": 39.3141695,
      "lon": -76.5687675
    },
    {
      "type": "node",
      "id": 3432938861,
      "lat": 39.3137687,
      "lon": -76.5689054
    },
    {
      "type": "node",
      "id": 3432938862,
      "lat": 39.3137686,
      "lon": -76.5689232
    },
    {
      "type": "node",
      "id": 3432938863,
      "lat": 39.3137658,
      "lon": -76.5691005
    },
    {
      "type": "node",
      "id": 3432938868,
      "lat": 39.3138273,
      "lon": -76.5687424
    },
    {
      "type": "node",
      "id": 3432938869,
      "lat": 39.3137699,
      "lon": -76.5687418
    },
    {
      "type": "node",
      "id": 3432938896,
      "lat": 39.3138776,
      "lon": -76.5691013
    },
    {
      "type": "node",
      "id": 3432938903,
      "lat": 39.313827,
      "lon": -76.5687625
    },
    {
      "type": "node",
      "id": 3432938927,
      "lat": 39.314165,
      "lon": -76.5691019
    },
    {
      "type": "node",
      "id": 3432938928,
      "lat": 39.3141663,
      "lon": -76.5690378
    },
    {
      "type": "node",
      "id": 2019310288,
      "lat": 39.3600406,
      "lon": -76.7091815
    },
    {
      "type": "node",
      "id": 2019310323,
      "lat": 39.3594774,
      "lon": -76.7092451
    },
    {
      "type": "node",
      "id": 2019310324,
      "lat": 39.3598121,
      "lon": -76.7088587
    },
    {
      "type": "node",
      "id": 2019310345,
      "lat": 39.3597214,
      "lon": -76.7095779
    },
    {
      "type": "node",
      "id": 2019310349,
      "lat": 39.3598947,
      "lon": -76.7093592
    },
    {
      "type": "node",
      "id": 1905078866,
      "lat": 39.3461224,
      "lon": -76.7015667
    },
    {
      "type": "node",
      "id": 1905078871,
      "lat": 39.3461664,
      "lon": -76.700817
    },
    {
      "type": "node",
      "id": 1905078879,
      "lat": 39.3455876,
      "lon": -76.7007603
    },
    {
      "type": "node",
      "id": 1905078897,
      "lat": 39.3455436,
      "lon": -76.7015099
    },
    {
      "type": "node",
      "id": 2127892625,
      "lat": 39.3461312,
      "lon": -76.7014161
    },
    {
      "type": "node",
      "id": 1333011575,
      "lat": 39.3388841,
      "lon": -76.6355704
    },
    {
      "type": "node",
      "id": 1333011577,
      "lat": 39.3390045,
      "lon": -76.6355248
    },
    {
      "type": "node",
      "id": 1333011578,
      "lat": 39.3387161,
      "lon": -76.6359272
    },
    {
      "type": "node",
      "id": 1333011607,
      "lat": 39.3385896,
      "lon": -76.6346129
    },
    {
      "type": "node",
      "id": 1333011611,
      "lat": 39.3384692,
      "lon": -76.6349428
    },
    {
      "type": "node",
      "id": 1333011612,
      "lat": 39.3384755,
      "lon": -76.6347819
    },
    {
      "type": "node",
      "id": 1333011620,
      "lat": 39.3388613,
      "lon": -76.6359111
    },
    {
      "type": "node",
      "id": 1333011638,
      "lat": 39.3386477,
      "lon": -76.6356026
    },
    {
      "type": "node",
      "id": 1333011640,
      "lat": 39.3386093,
      "lon": -76.6356138
    },
    {
      "type": "node",
      "id": 1333011644,
      "lat": 39.3389229,
      "lon": -76.6357735
    },
    {
      "type": "node",
      "id": 1333011649,
      "lat": 39.3390356,
      "lon": -76.635329
    },
    {
      "type": "node",
      "id": 1333011660,
      "lat": 39.3385958,
      "lon": -76.6345807
    },
    {
      "type": "node",
      "id": 1333011674,
      "lat": 39.3387452,
      "lon": -76.6359593
    },
    {
      "type": "node",
      "id": 1333011680,
      "lat": 39.3389173,
      "lon": -76.6347282
    },
    {
      "type": "node",
      "id": 1333011681,
      "lat": 39.3386082,
      "lon": -76.6347175
    },
    {
      "type": "node",
      "id": 1333011685,
      "lat": 39.3385045,
      "lon": -76.634924
    },
    {
      "type": "node",
      "id": 3219229835,
      "lat": 39.3686935,
      "lon": -76.6501105
    },
    {
      "type": "node",
      "id": 3219229836,
      "lat": 39.3684886,
      "lon": -76.6497347
    },
    {
      "type": "node",
      "id": 3219229840,
      "lat": 39.3684359,
      "lon": -76.6500325
    },
    {
      "type": "node",
      "id": 3219229850,
      "lat": 39.3684418,
      "lon": -76.6500015
    },
    {
      "type": "node",
      "id": 3219229854,
      "lat": 39.3687542,
      "lon": -76.6497749
    },
    {
      "type": "node",
      "id": 3219229855,
      "lat": 39.3684959,
      "lon": -76.6496967
    },
    {
      "type": "node",
      "id": 3534485769,
      "lat": 39.3578319,
      "lon": -76.5959754
    },
    {
      "type": "node",
      "id": 3534485770,
      "lat": 39.3579612,
      "lon": -76.5964087
    },
    {
      "type": "node",
      "id": 3534485771,
      "lat": 39.3580506,
      "lon": -76.5964595
    },
    {
      "type": "node",
      "id": 3534485772,
      "lat": 39.3580963,
      "lon": -76.5964382
    },
    {
      "type": "node",
      "id": 3534485773,
      "lat": 39.3581158,
      "lon": -76.5965033
    },
    {
      "type": "node",
      "id": 3534485774,
      "lat": 39.3581908,
      "lon": -76.5957969
    },
    {
      "type": "node",
      "id": 3534485775,
      "lat": 39.3582459,
      "lon": -76.5963923
    },
    {
      "type": "node",
      "id": 3534485776,
      "lat": 39.358258,
      "lon": -76.5964329
    },
    {
      "type": "node",
      "id": 3534485777,
      "lat": 39.3583,
      "lon": -76.5963364
    },
    {
      "type": "node",
      "id": 3534485778,
      "lat": 39.3583076,
      "lon": -76.5963617
    },
    {
      "type": "node",
      "id": 3534485779,
      "lat": 39.358345,
      "lon": -76.5963141
    },
    {
      "type": "node",
      "id": 3466381466,
      "lat": 39.3389969,
      "lon": -76.5712319
    },
    {
      "type": "node",
      "id": 3466381467,
      "lat": 39.3389969,
      "lon": -76.5712355
    },
    {
      "type": "node",
      "id": 3466381468,
      "lat": 39.338997,
      "lon": -76.5712284
    },
    {
      "type": "node",
      "id": 3466381469,
      "lat": 39.3389971,
      "lon": -76.571239
    },
    {
      "type": "node",
      "id": 3466381470,
      "lat": 39.3389972,
      "lon": -76.5712266
    },
    {
      "type": "node",
      "id": 3466381471,
      "lat": 39.3389974,
      "lon": -76.5712249
    },
    {
      "type": "node",
      "id": 3466381472,
      "lat": 39.3389975,
      "lon": -76.5712426
    },
    {
      "type": "node",
      "id": 3466381473,
      "lat": 39.3389979,
      "lon": -76.5712214
    },
    {
      "type": "node",
      "id": 3466381474,
      "lat": 39.3389981,
      "lon": -76.571246
    },
    {
      "type": "node",
      "id": 3466381475,
      "lat": 39.3389984,
      "lon": -76.5712477
    },
    {
      "type": "node",
      "id": 3466381476,
      "lat": 39.3389987,
      "lon": -76.5712179
    },
    {
      "type": "node",
      "id": 3466381477,
      "lat": 39.3389991,
      "lon": -76.5712163
    },
    {
      "type": "node",
      "id": 3466381478,
      "lat": 39.3389993,
      "lon": -76.5712511
    },
    {
      "type": "node",
      "id": 3466381479,
      "lat": 39.3390001,
      "lon": -76.5712129
    },
    {
      "type": "node",
      "id": 3466381480,
      "lat": 39.3390003,
      "lon": -76.5712544
    },
    {
      "type": "node",
      "id": 3466381481,
      "lat": 39.3390007,
      "lon": -76.5712113
    },
    {
      "type": "node",
      "id": 3466381482,
      "lat": 39.3390015,
      "lon": -76.5712576
    },
    {
      "type": "node",
      "id": 3466381483,
      "lat": 39.3390019,
      "lon": -76.5712082
    },
    {
      "type": "node",
      "id": 3466381484,
      "lat": 39.3390022,
      "lon": -76.5712592
    },
    {
      "type": "node",
      "id": 3466381485,
      "lat": 39.3390026,
      "lon": -76.5712066
    },
    {
      "type": "node",
      "id": 3466381486,
      "lat": 39.3390034,
      "lon": -76.5712051
    },
    {
      "type": "node",
      "id": 3466381487,
      "lat": 39.3390037,
      "lon": -76.5712622
    },
    {
      "type": "node",
      "id": 3466381488,
      "lat": 39.3390049,
      "lon": -76.5712022
    },
    {
      "type": "node",
      "id": 3466381489,
      "lat": 39.3390053,
      "lon": -76.5712651
    },
    {
      "type": "node",
      "id": 3466381490,
      "lat": 39.3390058,
      "lon": -76.5712008
    },
    {
      "type": "node",
      "id": 3466381491,
      "lat": 39.3390076,
      "lon": -76.5711981
    },
    {
      "type": "node",
      "id": 3466381492,
      "lat": 39.3390085,
      "lon": -76.5711968
    },
    {
      "type": "node",
      "id": 3466385693,
      "lat": 39.3390106,
      "lon": -76.5711944
    },
    {
      "type": "node",
      "id": 3466385694,
      "lat": 39.3390127,
      "lon": -76.5711921
    },
    {
      "type": "node",
      "id": 3466385695,
      "lat": 39.3390138,
      "lon": -76.5711911
    },
    {
      "type": "node",
      "id": 3466385696,
      "lat": 39.3390161,
      "lon": -76.5711891
    },
    {
      "type": "node",
      "id": 3466385697,
      "lat": 39.3390173,
      "lon": -76.5711882
    },
    {
      "type": "node",
      "id": 3466385698,
      "lat": 39.3390511,
      "lon": -76.5713944
    },
    {
      "type": "node",
      "id": 3466385699,
      "lat": 39.3390663,
      "lon": -76.5713805
    },
    {
      "type": "node",
      "id": 3466385700,
      "lat": 39.3390796,
      "lon": -76.5714449
    },
    {
      "type": "node",
      "id": 3466385701,
      "lat": 39.339094,
      "lon": -76.5714324
    },
    {
      "type": "node",
      "id": 3466385702,
      "lat": 39.3392503,
      "lon": -76.5717216
    },
    {
      "type": "node",
      "id": 3466385703,
      "lat": 39.339251,
      "lon": -76.5717228
    },
    {
      "type": "node",
      "id": 3466385704,
      "lat": 39.3392526,
      "lon": -76.5717252
    },
    {
      "type": "node",
      "id": 3466385705,
      "lat": 39.3392534,
      "lon": -76.5717263
    },
    {
      "type": "node",
      "id": 3466385706,
      "lat": 39.3392551,
      "lon": -76.5717285
    },
    {
      "type": "node",
      "id": 3466385707,
      "lat": 39.339256,
      "lon": -76.5717296
    },
    {
      "type": "node",
      "id": 3466385708,
      "lat": 39.3392579,
      "lon": -76.5717315
    },
    {
      "type": "node",
      "id": 3466385709,
      "lat": 39.3392589,
      "lon": -76.5717324
    },
    {
      "type": "node",
      "id": 3466385710,
      "lat": 39.3392599,
      "lon": -76.5717332
    },
    {
      "type": "node",
      "id": 3466385711,
      "lat": 39.339262,
      "lon": -76.5717348
    },
    {
      "type": "node",
      "id": 3466385712,
      "lat": 39.3392642,
      "lon": -76.5717362
    },
    {
      "type": "node",
      "id": 3466385713,
      "lat": 39.3392653,
      "lon": -76.5717368
    },
    {
      "type": "node",
      "id": 3466385714,
      "lat": 39.3392676,
      "lon": -76.5717379
    },
    {
      "type": "node",
      "id": 3466385715,
      "lat": 39.3392687,
      "lon": -76.5717384
    },
    {
      "type": "node",
      "id": 3466385716,
      "lat": 39.3392699,
      "lon": -76.5717388
    },
    {
      "type": "node",
      "id": 3466385717,
      "lat": 39.3392723,
      "lon": -76.5717395
    },
    {
      "type": "node",
      "id": 3466385718,
      "lat": 39.3392746,
      "lon": -76.57174
    },
    {
      "type": "node",
      "id": 3466385719,
      "lat": 39.3392771,
      "lon": -76.5717402
    },
    {
      "type": "node",
      "id": 3466385720,
      "lat": 39.3392795,
      "lon": -76.5717403
    },
    {
      "type": "node",
      "id": 3466385721,
      "lat": 39.3392819,
      "lon": -76.5717401
    },
    {
      "type": "node",
      "id": 3466385722,
      "lat": 39.3392831,
      "lon": -76.5717399
    },
    {
      "type": "node",
      "id": 3466385723,
      "lat": 39.3392855,
      "lon": -76.5717394
    },
    {
      "type": "node",
      "id": 3466385724,
      "lat": 39.3392868,
      "lon": -76.5708301
    },
    {
      "type": "node",
      "id": 3466385725,
      "lat": 39.3392878,
      "lon": -76.5717387
    },
    {
      "type": "node",
      "id": 3466385726,
      "lat": 39.3392902,
      "lon": -76.5717378
    },
    {
      "type": "node",
      "id": 3466385727,
      "lat": 39.3392924,
      "lon": -76.5717367
    },
    {
      "type": "node",
      "id": 3466385728,
      "lat": 39.3392935,
      "lon": -76.5717361
    },
    {
      "type": "node",
      "id": 3466385729,
      "lat": 39.3392957,
      "lon": -76.5717346
    },
    {
      "type": "node",
      "id": 3466385730,
      "lat": 39.3392978,
      "lon": -76.571733
    },
    {
      "type": "node",
      "id": 3466385731,
      "lat": 39.3392998,
      "lon": -76.5717313
    },
    {
      "type": "node",
      "id": 3466385732,
      "lat": 39.3393016,
      "lon": -76.5717293
    },
    {
      "type": "node",
      "id": 3466385733,
      "lat": 39.3393146,
      "lon": -76.5717179
    },
    {
      "type": "node",
      "id": 3466385734,
      "lat": 39.3393302,
      "lon": -76.5717481
    },
    {
      "type": "node",
      "id": 3466385735,
      "lat": 39.3393364,
      "lon": -76.5709191
    },
    {
      "type": "node",
      "id": 3466385736,
      "lat": 39.3394214,
      "lon": -76.5707097
    },
    {
      "type": "node",
      "id": 3466385737,
      "lat": 39.3397548,
      "lon": -76.5713301
    },
    {
      "type": "node",
      "id": 3466385738,
      "lat": 39.3397593,
      "lon": -76.5713258
    },
    {
      "type": "node",
      "id": 3466385739,
      "lat": 39.3397694,
      "lon": -76.5713592
    },
    {
      "type": "node",
      "id": 797701957,
      "lat": 39.2896509,
      "lon": -76.5353826
    },
    {
      "type": "node",
      "id": 797701959,
      "lat": 39.2892918,
      "lon": -76.5354966
    },
    {
      "type": "node",
      "id": 797701960,
      "lat": 39.28897,
      "lon": -76.5354805
    },
    {
      "type": "node",
      "id": 797701963,
      "lat": 39.2890354,
      "lon": -76.5354764
    },
    {
      "type": "node",
      "id": 797701966,
      "lat": 39.2889503,
      "lon": -76.5357876
    },
    {
      "type": "node",
      "id": 797701972,
      "lat": 39.2894817,
      "lon": -76.5353705
    },
    {
      "type": "node",
      "id": 797701976,
      "lat": 39.2898388,
      "lon": -76.5354805
    },
    {
      "type": "node",
      "id": 797701978,
      "lat": 39.2890115,
      "lon": -76.5361148
    },
    {
      "type": "node",
      "id": 797701982,
      "lat": 39.2893084,
      "lon": -76.535341
    },
    {
      "type": "node",
      "id": 797701988,
      "lat": 39.289709,
      "lon": -76.5354697
    },
    {
      "type": "node",
      "id": 797702004,
      "lat": 39.2886732,
      "lon": -76.5357688
    },
    {
      "type": "node",
      "id": 797702013,
      "lat": 39.2898087,
      "lon": -76.5361966
    },
    {
      "type": "node",
      "id": 797702015,
      "lat": 39.2886617,
      "lon": -76.5360907
    },
    {
      "type": "node",
      "id": 797702016,
      "lat": 39.2894817,
      "lon": -76.5353397
    },
    {
      "type": "node",
      "id": 3432542693,
      "lat": 39.3237613,
      "lon": -76.5450345
    },
    {
      "type": "node",
      "id": 3432542694,
      "lat": 39.32342,
      "lon": -76.5448256
    },
    {
      "type": "node",
      "id": 3432542695,
      "lat": 39.3238514,
      "lon": -76.5447925
    },
    {
      "type": "node",
      "id": 3432542697,
      "lat": 39.3234317,
      "lon": -76.5447939
    },
    {
      "type": "node",
      "id": 3432542698,
      "lat": 39.3236178,
      "lon": -76.5440844
    },
    {
      "type": "node",
      "id": 3432542699,
      "lat": 39.3236466,
      "lon": -76.5440067
    },
    {
      "type": "node",
      "id": 3432542700,
      "lat": 39.3232421,
      "lon": -76.5446778
    },
    {
      "type": "node",
      "id": 3432542701,
      "lat": 39.3234901,
      "lon": -76.5440063
    },
    {
      "type": "node",
      "id": 3432542715,
      "lat": 39.3240217,
      "lon": -76.5443332
    },
    {
      "type": "node",
      "id": 3432542721,
      "lat": 39.3238924,
      "lon": -76.5441572
    },
    {
      "type": "node",
      "id": 3432542722,
      "lat": 39.3239306,
      "lon": -76.5445798
    },
    {
      "type": "node",
      "id": 3432542723,
      "lat": 39.3238633,
      "lon": -76.5442362
    }
  ]
}